1 38069U 93036BSB 18210.95851394  .00001514  00000-0  55400-3 0  9991
2 38069  74.1884  26.1833 0098120 220.0706 295.5078 14.31085810366710
1 38200U 93036BSQ 18212.19038181  .00002165  00000-0  17174-3 0  9996
2 38200  74.0618 165.0202 0089420 156.0743 204.4640 14.98116999462544
1 38210U 93036BTA 18211.76117190 +.00001229 +00000-0 +21794-3 0  9990
2 38210 074.0216 333.5046 0026355 040.3307 319.9811 14.68208061295732
1 38286U 88005AP  18212.34095288  .00000790  00000-0  59737-3 0  9991
2 38286  82.5259  74.9745 0042350 214.7179 268.5058 13.92518066487869
1 38150U 99025EQX 18212.00840603  .00000906  00000-0  22581-3 0  9993
2 38150  98.5837 293.2212 0092632   2.4515 357.7115 14.51679276469870
1 38024U 97051YL  18206.70058520 +.00001874 +00000-0 +65987-3 0  9991
2 38024 086.4844 195.6757 0125799 329.9015 029.4989 14.30042905463131
1 37978U 93036BQD 18211.98524483  .00000408  00000-0  79388-4 0  9992
2 37978  74.0740 316.5506 0090745 331.4085  28.2121 14.64026258453672
1 38124U 99025EPV 18211.25021171 -.00000000  00000-0  32926-4 0  9992
2 38124  97.7886  17.7572 0360714  72.0181 291.9919 13.39856379523299
1 38030U 97051YS  18212.06947447  .00003305  00000-0  74533-3 0  9997
2 38030  86.3639 129.2714 0086782  84.0140 277.0949 14.53712882395304
1 38327U 11068J   18212.50878740 -.00000009  00000-0  21659-4 0  9999
2 38327  98.6423  92.0252 0205495 318.3045 160.2814 13.91105739338720
1 38177U 11068E   18211.95576993 +.00000190 +00000-0 +72230-4 0  9996
2 38177 098.4928 206.2078 0138145 193.4524 195.3589 14.36676476346499
1 38129U 99025EQA 18211.62097911  .00001249  00000-0  95782-3 0  9996
2 38129  97.9788 348.2578 0133145 349.1546  10.6752 13.90702140412611
1 37988U 93036BQP 18212.27526958  .00000297  00000-0  80096-4 0  9999
2 37988  74.0683  65.5559 0089663  84.6470 276.4912 14.49973258849881
1 37994U 93036BQV 18211.36754401  .00000106  00000-0  46425-4 0  9998
2 37994  74.0372 179.4412 0025556 202.4935 157.5099 14.34935439384302
1 38232U 97051ZG  18209.19479412 +.00003726 +00000-0 +10468-2 0  9996
2 38232 086.4592 174.1608 0087359 165.3903 194.9855 14.43471793475482
1 38304U 10009H   18212.52355472 -.00000024  00000-0  17384-3 0  9998
2 38304  63.3216  37.1032 0103561 321.7125  68.8760 13.03661907399613
1 38214U 93036BTE 18212.31233505  .00007352  00000-0  46207-3 0  9994
2 38214  74.0259 194.1982 0011985 270.0239  89.9579 15.09350504465462
1 38289U 82025BF  18159.22803413 +.00001223 +00000-0 +69221-3 0  9995
2 38289 082.5159 134.9989 0033711 103.6553 256.8378 14.09109510721765
1 38156U 99025ERD 18211.37587572 +.00005592 +00000-0 +42629-3 0  9992
2 38156 099.0427 268.3008 0050193 207.9449 151.9074 15.01565679414849
1 38055U 93036BRM 18211.01059407  .00000171  00000-0  42177-4 0  9995
2 38055  74.0194 328.4130 0091323  45.0775  74.3527 14.57471168405860
1 38180U 11068H   18211.40108235 +.00000067 +00000-0 +47647-4 0  9997
2 38180 098.7379 189.6678 0150676 051.3810 105.6008 14.18357746342604
1 38132U 99025EQD 18198.98575853  .00002505  00000-0  11400-2 0  9999
2 38132  99.2446 258.1850 0188142 213.7931 145.1133 14.13742924454099
1 37997U 93036BQY 18204.67220176 +.00001143 +00000-0 +36481-3 0  9996
2 37997 074.0115 216.4089 0053030 201.0573 158.8399 14.40051531472756
1 38235U 97051ZK  18209.39944988 +.00002695 +00000-0 +42630-3 0  9997
2 38235 086.3924 089.1878 0017704 194.8388 165.2311 14.71837549859354
1 38309U 11079C   18212.02023441  .00000256  00000-0  75090-4 0  9999
2 38309  98.2775 287.3285 0120694 152.4353 331.8347 14.47779879712285
1 38241U 97051ZR  18211.38334808  .00000608  00000-0  17792-3 0  9993
2 38241  86.3253  79.0592 0003758  33.1855 326.9580 14.42371619449713
1 38110U 99025EPF 18211.88912120  .00000208  00000-0  16776-3 0  9992
2 38110  98.1422  80.6574 0204560 282.3220 133.8600 13.90343901414392
1 38312U 11079F   18211.33884553  .00000234  00000-0  89798-4 0  9991
2 38312  98.2638 251.6164 0122552 276.8198 141.0391 14.35233666713793
1 38219U 93036BTK 18211.04337187 +.00007757 +00000-0 +43182-3 0  9997
2 38219 073.6496 342.8399 0033297 134.6099 225.7818 15.13324328475094
1 38294U 10059D   18211.47889261  .00000199  00000-0  20774-3 0  9991
2 38294  98.7178 287.3405 0265044 252.3350 104.8701 13.71409418375989
1 38159U 99025ERG 18207.58426651 +.00000477 +00000-0 +34909-3 0  9992
2 38159 099.3512 340.9370 0055125 149.7991 210.6370 14.00379431453510
1 38058U 93036BRQ 18211.90868084 +.00000086 +00000-0 +91292-4 0  9992
2 38058 074.0059 297.8448 0445252 014.3117 347.0131 13.49541427219205
1 38188U 93036BSC 18211.54845317  .00000791  00000-0  24915-3 0  9990
2 38188  74.0139 171.2425 0045023 192.8319 283.9765 14.41408627372990
1 38135U 99025EQG 18212.27899915  .00000159  00000-0  76580-4 0  9994
2 38135  98.9838 231.9406 0238223 252.9478 104.5476 14.18880819461139
1 38001U 93036BRC 18212.52076479  .00000087  00000-0  23042-4 0  9997
2 38001  74.0115 281.2397 0085659  16.6975  43.2378 14.61430899452138
1 38269U 12020B   18211.88665978  .00005542  00000-0  21175-3 0  9998
2 38269  97.2461 235.0012 0082909  12.6073 347.7211 15.23803591340738
1 38016U 97051YC  18212.02173937  .00003624  00000-0  49819-3 0  9995
2 38016  86.3987 103.8099 0032060 159.3992 265.3935 14.77699087376388
1 38262U 07019B   18211.16230387  .00000111  00000-0  43876-4 0  9996
2 38262  97.8241 334.6670 0185222 113.5040   8.7385 14.35184502558368
1 38115U 99025EPL 17350.10537117  .00001871  00000-0  13418-2 0  9990
2 38115  97.6920 304.5774 0333618  63.9196 299.5893 13.74434819484624
1 38315U 11043E   18211.08051232 -.00000059 +00000-0 -18317-4 0  9993
2 38315 099.6746 149.8238 0218482 289.7680 068.0014 13.51039736239699
1 38224U 97051YY  18211.56453952  .00002142  00000-0  67195-3 0  9993
2 38224  86.3878 152.7875 0095580 262.9699  96.0621 14.37576623457741
1 38297U 10059G   18211.50798637  .00000159  00000-0  16577-3 0  9996
2 38297  98.7627 312.0367 0243475 195.0721 164.3085 13.75609504383306
1 38163U 99025ERL 18181.17259991 -.00000049  00000-0 -23661-5 0  9996
2 38163  99.2227 155.2686 0083879 178.3886 181.7564 14.00605768485683
1 38062U 93036BRU 18212.19493253  .00000437  00000-0  11282-3 0  9991
2 38062  74.0233  40.3014 0032608 120.6152 358.5692 14.52668624415112
1 38191U 93036BSF 18211.21628047 +.00001299 +00000-0 +36915-3 0  9994
2 38191 074.0057 166.2970 0044901 167.2770 192.9533 14.45817794196464
1 38138U 99025EQK 18211.91705299 +.00000467 +00000-0 +25808-3 0  9996
2 38138 098.9360 264.8927 0054196 140.3230 220.1928 14.15526411255822
1 38142U 99025EQP 18211.39004265 +.00000544 +00000-0 +15119-3 0  9998
2 38142 098.6121 283.8453 0098045 048.8325 312.1273 14.47814606267472
1 38282U 88005AK  18212.32453021  .00000786  00000-0  58728-3 0  9992
2 38282  82.5400  74.3457 0029169 183.7317 176.3635 13.93456665384960
1 38146U 99025EQT 13315.50243100 +.00002343 +00000-0 +57475-3 0  9998
2 38146 099.5434 202.5211 0288787 345.3818 011.6719 14.31329862317738
1 38019U 97051YF  18211.09751015  .00002243  00000-0  59432-3 0  9991
2 38019  86.4004 145.2912 0085451 156.9030 203.6051 14.46149947440202
1 37973U 93036BPY 18200.39305172 +.00000213 +00000-0 +85804-4 0  9996
2 37973 074.0350 224.3010 0043640 241.0281 118.6492 14.33441099261937
1 38265U 09069B   18211.94214013 +.00000241 +00000-0 +96047-4 0  9992
2 38265 097.7676 026.3573 0239411 214.7506 143.7837 14.21788627442266
1 38120U 99025EPR 18209.52010507 +.00001615 +00000-0 +41106-3 0  9997
2 38120 098.3533 111.5572 0049408 021.6649 102.8464 14.51299207267260
1 38323U 08056J   18211.15444507  .00000130  00000-0  10966-3 0  9990
2 38323  98.5193 333.0160 0203666  94.9612  27.7737 13.92425514491863
1 37983U 93036BQJ 18211.54269139  .00001326  00000-0  18324-3 0  9996
2 37983  74.0090 269.2552 0022166 358.3049   1.8048 14.79079380475647
1 38227U 97051ZB  18210.89359132  .00000784  00000-0  19204-3 0  9994
2 38227  86.3109  65.4150 0006487 282.2947  77.7532 14.51289735470996
1 38300U 10027E   18211.81764098 +.00000602 +00000-0 +92594-4 0  9991
2 38300 097.5836 055.8947 0175533 185.9887 239.0091 14.67084109325703
1 38166U 99025ERP 18211.49754533 +.00000563 +00000-0 +35223-3 0  9994
2 38166 099.1661 228.7084 0078269 064.2318 296.6900 14.07307909257449
1 38171U 99025ERU 15023.11389546 +.00015960 +00000-0 +20774-2 0  9996
2 38171 099.4737 346.1602 0323344 227.9102 148.3975 14.50329863262609
1 38065U 93036BRX 18211.44468928  .00000791  00000-0  21370-3 0  9994
2 38065  74.0307 116.8315 0020276 126.9421 350.9540 14.49342329357093
1 38196U 93036BSL 18211.30142806  .00001408  00000-0  34544-3 0  9991
2 38196  73.8899 208.3735 0202231 234.1751 124.0470 14.41816768387253
1 38068U 93036BSA 18210.94038162 +.00000062 +00000-0 +32260-4 0  9996
2 38068 074.0215 195.4733 0027525 212.7461 147.1985 14.32528291280611
1 38199U 93036BSP 18211.16085198 +.00000060 +00000-0 +68948-4 0  9997
2 38199 073.9574 146.8248 0380420 243.7740 112.3807 13.61211749243561
1 38145U 99025EQS 18212.22577833  .00000444  00000-0  37098-3 0  9999
2 38145  97.6276  12.3694 0428290  88.4366 276.5779 13.55978864531092
1 38208U 93036BSY 18210.08739789 +.00000512 +00000-0 +15488-3 0  9992
2 38208 074.0208 126.1142 0016243 152.4322 266.2373 14.44806604320401
1 38285U 88005AN  18025.19211162  .00001675  00000-0  13323-2 0  9999
2 38285  82.5450 239.5176 0020158  13.0974 347.0709 13.90566954537154
1 38149U 99025EQW 18203.40745210  .00000051  00000-0  39884-4 0  9999
2 38149  98.5992 266.8506 0081499 134.3603 226.4291 14.23262745458631
1 38023U 97051YK  18212.14947476  .00002279  00000-0  67995-3 0  9993
2 38023  86.4194 167.1806 0102107 263.0349  95.9227 14.39653808455608
1 37977U 93036BQC 18212.15403455  .00000765  00000-0  23193-3 0  9994
2 37977  73.9830 149.0838 0038932 181.7964 178.3059 14.43540400425963
1 38123U 99025EPU 18202.89882275 +.00000754 +00000-0 +11227-2 0  9995
2 38123 100.3245 250.7048 0438868 211.7117 145.6869 13.23883510427508
1 38028U 97051YQ  18211.37836214  .00000209  00000-0  59781-4 0  9995
2 38028  86.3267  80.8310 0030397   8.9194 351.2539 14.39874061443381
